ONEWEB-0435             
1 51632U 22012L   24334.76095743 -.00000345  00000+0 -10242-2 0  9995
2 51632  87.8895 148.6837 0001508  71.7152 288.4139 13.10376148135398
ONEWEB-0438             
1 51634U 22012N   24334.89706229 -.00000575  00000+0 -16846-2 0  9990
2 51634  87.8891 148.6576 0001676  95.0873 265.0445 13.10368993136730
ONEWEB-0439             
1 51635U 22012P   24334.74768551 -.00000624  00000+0 -18251-2 0  9998
2 51635  87.8885 148.6728 0001475  87.3470 272.7826 13.10374723135406
ONEWEB-0443             
1 51637U 22012R   24334.63861372  .00000065  00000+0  13504-3 0  9997
2 51637  87.9084 118.3669 0001871  94.3630 265.7715 13.17650098139372
ONEWEB-0444             
1 51638U 22012S   24334.73771722 -.00000318  00000+0 -94623-3 0  9992
2 51638  87.8882 148.6887 0001513  83.6758 276.4541 13.10370106135410
ONEWEB-0445             
1 51639U 22012T   24334.75929685 -.00000369  00000+0 -10920-2 0  9991
2 51639  87.8908 148.6483 0001432  98.0719 262.0570 13.10376785135422
